PROBA-1                 
1 26958U 01049B   22044.50392173  .00001637  00000+0  14385-3 0  9996
2 26958  97.8050   4.6048 0073170  38.7672 321.8793 14.95970009105940
BIRD 2                  
1 26959U 01049C   22044.48805473  .00010740  00000+0  26062-3 0  9996
2 26959  97.7696 128.2219 0008620  95.9515 264.2714 15.41198746434072
CUTE-1 (CO-55)          
1 27844U 03031E   22044.55306118  .00000201  00000+0  10961-3 0  9995
2 27844  98.6810  54.1001 0010955 100.1468 260.0946 14.22381363966258
CUBESAT XI-IV (CO-57)   
1 27848U 03031J   22044.54827327  .00000170  00000+0  96675-4 0  9990
2 27848  98.6860  54.6370 0010778 112.7096 247.5222 14.21948215966071
GENESIS 1               
1 29252U 06029A   22044.58205253  .00003840  00000+0  18138-3 0  9997
2 29252  64.5230 117.5226 0059683 280.5605  78.8799 15.19534942860143
FALCONSAT-3             
1 30776U 07006E   22044.51871527  .00025199  00000+0  51173-3 0  9999
2 30776  35.4349 346.8392 0004101 287.6657  72.3625 15.45390873830354
GENESIS 2               
1 31789U 07028A   22044.56708514  .00003391  00000+0  17131-3 0  9994
2 31789  64.4972 160.4387 0032851 336.9172  23.0473 15.18503836807083
APRIZESAT 4             
1 35684U 09041D   22044.54269029  .00000512  00000+0  75074-4 0  9993
2 35684  98.3150  53.9280 0047637  30.5639 329.8331 14.79485594676749
APRIZESAT 3             
1 35686U 09041F   22044.48198273  .00000768  00000+0  87268-4 0  9991
2 35686  98.1142 128.4234 0071476 230.7107 128.7756 14.87675821680171
PROBA-2                 
1 36037U 09059B   22044.49483219  .00000158  00000+0  48772-4 0  9999
2 36037  98.2212 233.4316 0014306 128.2565 231.9920 14.53196880651250
APRIZESAT 5             
1 37792U 11044E   22044.55360056  .00000407  00000+0  66384-4 0  9991
2 37792  98.3450 276.2001 0058801  39.9295 320.6216 14.75605037564728
APRIZESAT 6             
1 37793U 11044F   22044.58925789  .00000369  00000+0  65609-4 0  9991
2 37793  98.4137 252.3730 0047978  87.1545 338.7034 14.72649982563633
TET-1                   
1 38710U 12039D   22044.42970786  .00032888  00000+0  40096-3 0  9999
2 38710  97.5250 116.8921 0002531 118.7460 241.4051 15.60428181538015
PROBA-V                 
1 39159U 13021A   22044.40407610  .00000025  00000+0  29124-4 0  9996
2 39159  98.3761  86.4507 0005378  93.9115 266.2679 14.23017699455682
STPSAT-3                
1 39380U 13064A   22044.35090404  .00006946  00000+0  16897-3 0  9992
2 39380  40.4993  64.2709 0003977 149.7031 210.4015 15.41154832460134
APRIZESAT 7             
1 39416U 13066A   22044.51610411  .00000710  00000+0  89631-4 0  9998
2 39416  97.5597  30.9579 0042136  47.9414 312.5374 14.84228474445658
APRIZESAT 8             
1 39425U 13066K   22044.51474921  .00000572  00000+0  77771-4 0  9990
2 39425  97.6111  21.9874 0053241  86.7752 273.9551 14.81411764444619
BUGSAT-1 (TITA)         
1 40014U 14033E   22044.56319947  .00001060  00000+0  98924-4 0  9998
2 40014  98.1348  38.0133 0032566  86.9687 273.5258 14.96124865417615
SAUDISAT 4              
1 40016U 14033G   22044.53699766  .00000365  00000+0  59911-4 0  9997
2 40016  97.6471 246.1471 0048128 181.5856 178.5210 14.75444709412128
APRIZESAT 9             
1 40018U 14033J   22044.46731983  .00000379  00000+0  68772-4 0  9999
2 40018  97.7035 221.8030 0069916 251.3070 108.0539 14.70138031410437
APRIZESAT 10            
1 40019U 14033K   22044.44496279  .00000305  00000+0  59971-4 0  9994
2 40019  97.7506 211.2137 0082836 292.5686  66.6769 14.67183497409612
TDS 1                   
1 40076U 14037H   22044.56123670  .00001559  00000+0  18912-3 0  9997
2 40076  98.4100 270.6976 0007965 107.0122 253.1964 14.85137133411314
TIANTUO 2               
1 40144U 14053B   22044.49637940  .00004777  00000+0  13593-3 0  9998
2 40144  97.2041 126.9628 0009568 291.6246 125.4163 15.36559151416059
TECHNOSAT               
1 42829U 17042E   22044.58907393  .00000875  00000+0  92383-4 0  9993
2 42829  97.4372 265.8517 0015541  64.3016 295.9806 14.91527672249625
FLYING LAPTOP           
1 42831U 17042G   22044.42790518  .00001257  00000+0  13050-3 0  9996
2 42831  97.4394 265.9895 0015463  65.3435 294.9391 14.91514027249607
HAWK-A                  
1 43765U 18099H   22044.53625276  .00001830  00000+0  16542-3 0  9992
2 43765  97.6350 115.6203 0013897 332.5276  27.5210 14.96607238174602
HAWK-B                  
1 43794U 18099AN  22044.46979451  .00002032  00000+0  18311-3 0  9994
2 43794  97.6351 115.5555 0013988 332.8022  27.2466 14.96608264174584
HAWK-C                  
1 43799U 18099AT  22044.46960559  .00001854  00000+0  16755-3 0  9999
2 43799  97.6351 115.4674 0013861 332.5185  27.5302 14.96606134175337
SALSAT                  
1 46495U 20068K   22044.56346099  .00002184  00000+0  16270-3 0  9991
2 46495  97.7195 345.9837 0016104 343.2096  16.8594 15.03888094 75568
